QIANFAN-123             
1 68650U 26075Q   26107.29046059  .00000414  00000+0  17544-3 0  9998
2 68650  88.9908 327.5912 0014628 181.1134 179.0028 14.23608620  1356
QIANFAN-124             
1 68651U 26075R   26107.28662208  .00000146  00000+0  54783-4 0  9997
2 68651  88.9910 327.5911 0014774 182.6501 177.4616 14.26078367  1385
QIANFAN-125             
1 68652U 26075S   26107.28641595  .00000396  00000+0  15941-3 0  9993
2 68652  88.9911 327.5910 0014350 183.4958 176.6138 14.26100119  1382
QIANFAN-126             
1 68653U 26075T   26107.21611267  .00004985  00000+0  20768-2 0  9990
2 68653  88.9891 327.6020 0014594 181.3038 178.8121 14.26117770  1375
HULIANWANG DIGUI-164    
1 68656U 26076A   26106.53763742 -.00000975  00000+0 -94385-3 0  9998
2 68656  86.4942  65.5291 0007614 190.1541 169.9473 13.80797947  1075
HULIANWANG DIGUI-165    
1 68657U 26076B   26105.81266765  .00000145  00000+0  12085-3 0  9996
2 68657  86.4958  65.8012 0007110 188.9983 171.1057 13.81265757   974
HULIANWANG DIGUI-166    
1 68658U 26076C   26105.81182834 -.00000531  00000+0 -51288-3 0  9990
2 68658  86.4899  65.7912 0006837 183.7491 176.3625 13.81788312   974
HULIANWANG DIGUI-167    
1 68659U 26076D   26106.53467807 -.00000055  00000+0 -67130-4 0  9992
2 68659  86.4961  65.5314 0006723 176.8106 183.3106 13.82387345  1075
HULIANWANG DIGUI-168    
1 68660U 26076E   26106.75062412 -.00000682  00000+0 -64056-3 0  9990
2 68660  86.4940  65.4459 0006445 175.0396 185.0836 13.82964241  1093
GUOWANG TEST OBJECT A   
1 68687U 26078A   26107.29937105  .00000360  00000+0  39871-3 0  9999
2 68687  86.4975 303.7921 0008059 268.3702  91.6534 13.68813262   784
CYGNUS NG-24            
1 68689U 26079A   26107.16713328  .00006923  00000+0  13461-3 0  9995
2 68689  51.6328 242.0950 0006547 316.4598  43.5873 15.48795320   828
