[
  {
    "OBJECT_NAME": "QIANFAN-123",
    "OBJECT_ID": "2026-075Q",
    "EPOCH": "2026-04-17T06:58:15.794976",
    "MEAN_MOTION": 14.2360862,
    "ECCENTRICITY": 0.00146283,
    "INCLINATION": 88.9908,
    "RA_OF_ASC_NODE": 327.5912,
    "ARG_OF_PERICENTER": 181.1134,
    "MEAN_ANOMALY": 179.0028,
    "EPHEMERIS_TYPE": 0,
    "CLASSIFICATION_TYPE": "U",
    "NORAD_CAT_ID": 68650,
    "ELEMENT_SET_NO": 999,
    "REV_AT_EPOCH": 135,
    "BSTAR": 0.00017544272,
    "MEAN_MOTION_DOT": 4.14e-06,
    "MEAN_MOTION_DDOT": 0
  },
  {
    "OBJECT_NAME": "QIANFAN-124",
    "OBJECT_ID": "2026-075R",
    "EPOCH": "2026-04-17T06:52:44.147712",
    "MEAN_MOTION": 14.26078367,
    "ECCENTRICITY": 0.00147746,
    "INCLINATION": 88.991,
    "RA_OF_ASC_NODE": 327.5911,
    "ARG_OF_PERICENTER": 182.6501,
    "MEAN_ANOMALY": 177.4616,
    "EPHEMERIS_TYPE": 0,
    "CLASSIFICATION_TYPE": "U",
    "NORAD_CAT_ID": 68651,
    "ELEMENT_SET_NO": 999,
    "REV_AT_EPOCH": 138,
    "BSTAR": 5.478329e-05,
    "MEAN_MOTION_DOT": 1.46e-06,
    "MEAN_MOTION_DDOT": 0
  },
  {
    "OBJECT_NAME": "QIANFAN-125",
    "OBJECT_ID": "2026-075S",
    "EPOCH": "2026-04-17T06:52:26.338080",
    "MEAN_MOTION": 14.26100119,
    "ECCENTRICITY": 0.00143507,
    "INCLINATION": 88.9911,
    "RA_OF_ASC_NODE": 327.591,
    "ARG_OF_PERICENTER": 183.4958,
    "MEAN_ANOMALY": 176.6138,
    "EPHEMERIS_TYPE": 0,
    "CLASSIFICATION_TYPE": "U",
    "NORAD_CAT_ID": 68652,
    "ELEMENT_SET_NO": 999,
    "REV_AT_EPOCH": 138,
    "BSTAR": 0.00015941029,
    "MEAN_MOTION_DOT": 3.96e-06,
    "MEAN_MOTION_DDOT": 0
  },
  {
    "OBJECT_NAME": "QIANFAN-126",
    "OBJECT_ID": "2026-075T",
    "EPOCH": "2026-04-17T05:11:12.134688",
    "MEAN_MOTION": 14.2611777,
    "ECCENTRICITY": 0.00145943,
    "INCLINATION": 88.9891,
    "RA_OF_ASC_NODE": 327.602,
    "ARG_OF_PERICENTER": 181.3038,
    "MEAN_ANOMALY": 178.8121,
    "EPHEMERIS_TYPE": 0,
    "CLASSIFICATION_TYPE": "U",
    "NORAD_CAT_ID": 68653,
    "ELEMENT_SET_NO": 999,
    "REV_AT_EPOCH": 137,
    "BSTAR": 0.0020767795,
    "MEAN_MOTION_DOT": 4.985e-05,
    "MEAN_MOTION_DDOT": 0
  },
  {
    "OBJECT_NAME": "HULIANWANG DIGUI-164",
    "OBJECT_ID": "2026-076A",
    "EPOCH": "2026-04-16T12:54:11.873088",
    "MEAN_MOTION": 13.80797947,
    "ECCENTRICITY": 0.00076149,
    "INCLINATION": 86.4942,
    "RA_OF_ASC_NODE": 65.5291,
    "ARG_OF_PERICENTER": 190.1541,
    "MEAN_ANOMALY": 169.9473,
    "EPHEMERIS_TYPE": 0,
    "CLASSIFICATION_TYPE": "U",
    "NORAD_CAT_ID": 68656,
    "ELEMENT_SET_NO": 999,
    "REV_AT_EPOCH": 107,
    "BSTAR": -0.00094384731,
    "MEAN_MOTION_DOT": -9.75e-06,
    "MEAN_MOTION_DDOT": 0
  },
  {
    "OBJECT_NAME": "HULIANWANG DIGUI-165",
    "OBJECT_ID": "2026-076B",
    "EPOCH": "2026-04-15T19:30:14.484960",
    "MEAN_MOTION": 13.81265757,
    "ECCENTRICITY": 0.00071107,
    "INCLINATION": 86.4958,
    "RA_OF_ASC_NODE": 65.8012,
    "ARG_OF_PERICENTER": 188.9983,
    "MEAN_ANOMALY": 171.1057,
    "EPHEMERIS_TYPE": 0,
    "CLASSIFICATION_TYPE": "U",
    "NORAD_CAT_ID": 68657,
    "ELEMENT_SET_NO": 999,
    "REV_AT_EPOCH": 97,
    "BSTAR": 0.00012085186,
    "MEAN_MOTION_DOT": 1.45e-06,
    "MEAN_MOTION_DDOT": 0
  },
  {
    "OBJECT_NAME": "HULIANWANG DIGUI-166",
    "OBJECT_ID": "2026-076C",
    "EPOCH": "2026-04-15T19:29:01.968576",
    "MEAN_MOTION": 13.81788312,
    "ECCENTRICITY": 0.00068372,
    "INCLINATION": 86.4899,
    "RA_OF_ASC_NODE": 65.7912,
    "ARG_OF_PERICENTER": 183.7491,
    "MEAN_ANOMALY": 176.3625,
    "EPHEMERIS_TYPE": 0,
    "CLASSIFICATION_TYPE": "U",
    "NORAD_CAT_ID": 68658,
    "ELEMENT_SET_NO": 999,
    "REV_AT_EPOCH": 97,
    "BSTAR": -0.00051288377,
    "MEAN_MOTION_DOT": -5.31e-06,
    "MEAN_MOTION_DDOT": 0
  },
  {
    "OBJECT_NAME": "HULIANWANG DIGUI-167",
    "OBJECT_ID": "2026-076D",
    "EPOCH": "2026-04-16T12:49:56.185248",
    "MEAN_MOTION": 13.82387345,
    "ECCENTRICITY": 0.00067236,
    "INCLINATION": 86.4961,
    "RA_OF_ASC_NODE": 65.5314,
    "ARG_OF_PERICENTER": 176.8106,
    "MEAN_ANOMALY": 183.3106,
    "EPHEMERIS_TYPE": 0,
    "CLASSIFICATION_TYPE": "U",
    "NORAD_CAT_ID": 68659,
    "ELEMENT_SET_NO": 999,
    "REV_AT_EPOCH": 107,
    "BSTAR": -6.7129592e-05,
    "MEAN_MOTION_DOT": -5.5e-07,
    "MEAN_MOTION_DDOT": 0
  },
  {
    "OBJECT_NAME": "HULIANWANG DIGUI-168",
    "OBJECT_ID": "2026-076E",
    "EPOCH": "2026-04-16T18:00:53.923968",
    "MEAN_MOTION": 13.82964241,
    "ECCENTRICITY": 0.00064458,
    "INCLINATION": 86.494,
    "RA_OF_ASC_NODE": 65.4459,
    "ARG_OF_PERICENTER": 175.0396,
    "MEAN_ANOMALY": 185.0836,
    "EPHEMERIS_TYPE": 0,
    "CLASSIFICATION_TYPE": "U",
    "NORAD_CAT_ID": 68660,
    "ELEMENT_SET_NO": 999,
    "REV_AT_EPOCH": 109,
    "BSTAR": -0.00064055911,
    "MEAN_MOTION_DOT": -6.82e-06,
    "MEAN_MOTION_DDOT": 0
  },
  {
    "OBJECT_NAME": "GUOWANG TEST OBJECT A",
    "OBJECT_ID": "2026-078A",
    "EPOCH": "2026-04-17T07:11:05.658720",
    "MEAN_MOTION": 13.68813262,
    "ECCENTRICITY": 0.00080599,
    "INCLINATION": 86.4975,
    "RA_OF_ASC_NODE": 303.7921,
    "ARG_OF_PERICENTER": 268.3702,
    "MEAN_ANOMALY": 91.6534,
    "EPHEMERIS_TYPE": 0,
    "CLASSIFICATION_TYPE": "U",
    "NORAD_CAT_ID": 68687,
    "ELEMENT_SET_NO": 999,
    "REV_AT_EPOCH": 78,
    "BSTAR": 0.00039870513,
    "MEAN_MOTION_DOT": 3.6e-06,
    "MEAN_MOTION_DDOT": 0
  },
  {
    "OBJECT_NAME": "CYGNUS NG-24",
    "OBJECT_ID": "2026-079A",
    "EPOCH": "2026-04-17T04:00:40.315392",
    "MEAN_MOTION": 15.4879532,
    "ECCENTRICITY": 0.00065476,
    "INCLINATION": 51.6328,
    "RA_OF_ASC_NODE": 242.095,
    "ARG_OF_PERICENTER": 316.4598,
    "MEAN_ANOMALY": 43.5873,
    "EPHEMERIS_TYPE": 0,
    "CLASSIFICATION_TYPE": "U",
    "NORAD_CAT_ID": 68689,
    "ELEMENT_SET_NO": 999,
    "REV_AT_EPOCH": 82,
    "BSTAR": 0.00013461451,
    "MEAN_MOTION_DOT": 6.923e-05,
    "MEAN_MOTION_DDOT": 0
  }
]